IRIDIUM 116             
1 43072U 17083C   23327.57262722  .00000412  00000+0  13988-3 0  9993
2 43072  86.3976 353.4650 0002158  89.2376 270.9067 14.34218386309928
IRIDIUM 130             
1 43073U 17083D   23327.54091399  .00000410  00000+0  13937-3 0  9993
2 43073  86.3984 353.6627 0002242  95.1254 265.0198 14.34217415309864
IRIDIUM 151             
1 43074U 17083E   23327.58531440  .00000434  00000+0  14800-3 0  9990
2 43074  86.3977 353.4963 0001996  88.8296 271.3129 14.34219838309896
IRIDIUM 134             
1 43075U 17083F   23327.55360406  .00000441  00000+0  15044-3 0  9999
2 43075  86.3979 353.5049 0002363  93.6530 266.4936 14.34217054309854
IRIDIUM 137             
1 43076U 17083G   23327.56628685  .00000379  00000+0  12824-3 0  9990
2 43076  86.3980 353.5738 0002256  81.6195 278.5256 14.34217407309926
IRIDIUM 141             
1 43077U 17083H   23327.55994160  .00000403  00000+0  13667-3 0  9998
2 43077  86.3976 353.4600 0002033  95.5447 264.5981 14.34219219309929
IRIDIUM 153             
1 43078U 17083J   23327.51212389  .00000314  00000+0  10497-3 0  9990
2 43078  86.3942 321.9344 0001929  97.8301 262.3114 14.34220030311026
IRIDIUM 131             
1 43079U 17083K   23327.54726823  .00000440  00000+0  14994-3 0  9993
2 43079  86.3981 353.5887 0002100  94.6152 265.5284 14.34220863309859
